format  = 'OEF1.1'		! file format
rectype = ML			! record type: 1L = one line; ML = multi line
refsys  = ECLM J2000		! default reference system (optional)
epoch   = MJD 50400 0.0 TDT	! default epoch for orbital elements
END_OF_HEADER
! Masses from Hilton, J. L. 1997, New Asteroid Ephemerides for the Astronomical Almanac 
! Equinoctial elements: a, e*sin(LP), e*cos(LP), tan(i/2)*sin(LN), tan(i/2)*cos(LN), mean long.
1
 EQU   2.76631590052686E+00  0.033823261311183 -0.070635432794886  0.091349541631034  0.015294663043386 151.0612901075936
 MJD     51500.00000000 TDT
 MAS 4.39E-10
2
 EQU   2.77234888473739E+00  0.191595784551661 -0.126599547078213  0.037170922216568 -0.311614268928292 106.9190539088706
 MJD     51500.00000000 TDT
 MAS 1.59E-10
4
 EQU   2.36152588381342E+00 -0.086346234034798 -0.025489655628321  0.060495991416170 -0.015030268530582 222.4788623611247
 MJD     51500.00000000 TDT
 MAS 1.69E-10
